      2.10          N: GNSS NAV DATA                        RINEX VERSION / TYPE
fic2rin                                 08/01/2023 00:17:51 PGM / RUN BY / DATE
                                                            END OF HEADER
6  23  7 31  1 59 44.0  .572336837649D-03 -.443378667114D-11  .000000000000D+00
     .100000000000D+02  .388750000000D+02  .384015995808D-08  .232060204589D+01
     .213272869587D-05  .267792469822D-02  .173225998878D-06  .515371489906D+04
     .935840000000D+05 -.558793544769D-08  .113519229944D+01  .130385160446D-07
     .989174254690D+00  .390531250000D+03 -.765257959540D+00 -.805533553706D-08
     .116790579082D-09  .100000000000D+01  .227300000000D+04  .000000000000D+00
     .240000000000D+01  .000000000000D+00  .372529029846D-08  .100000000000D+02
     .864000000000D+05  .400000000000D+01
12 23  8  1  0  0  0.0 -.407494604588D-03 -.454747350886D-11  .000000000000D+00
     .460000000000D+02 -.396875000000D+01  .461983529183D-08 -.234487314858D+00
    -.221654772758D-06  .865585019346D-02  .868551433086D-05  .515356325150D+04
     .172800000000D+06 -.633299350739D-07 -.899636072768D+00  .428408384323D-07
     .964630175873D+00  .214218750000D+03  .138538159973D+01 -.802426281418D-08
    -.837534886690D-09  .100000000000D+01  .227300000000D+04  .000000000000D+00
     .240000000000D+01  .000000000000D+00 -.125728547573D-07  .460000000000D+02
     .165600000000D+06  .400000000000D+01
8  23  8  1  0  0  0.0 -.134999398142D-03 -.181898940355D-11  .000000000000D+00
     .390000000000D+02  .117000000000D+03  .404909723258D-08 -.299654204242D+01
     .603124499321D-05  .851869734470D-02  .116880983114D-04  .515373578835D+04
     .172800000000D+06 -.279396772385D-07  .492259601274D-01 -.540167093277D-07
     .958105956227D+00  .152593750000D+03  .270222073297D+00 -.765281877062D-08
    -.175721605224D-09  .100000000000D+01  .227300000000D+04  .000000000000D+00
     .240000000000D+01  .000000000000D+00  .512227416039D-08  .390000000000D+02
     .165600000000D+06  .400000000000D+01
7  23  8  1  0  0  0.0  .108795706183D-03 -.109139364213D-10  .000000000000D+00
     .850000000000D+02  .252187500000D+02  .545951312492D-08  .439032367095D+00
     .155717134476D-05  .175048550591D-01  .593811273575D-05  .515372196007D+04
     .172800000000D+06 -.111758708954D-06 -.201500754970D+01  .141561031342D-06
     .950009055759D+00  .260656250000D+03 -.217915645253D+01 -.865714631918D-08
     .236795577772D-09  .100000000000D+01  .227300000000D+04  .000000000000D+00
     .240000000000D+01  .000000000000D+00 -.111758708954D-07  .850000000000D+02
     .165600000000D+06  .400000000000D+01
6  23  8  1  0  0  0.0  .571988057345D-03 -.443378667114D-11  .000000000000D+00
     .740000000000D+02  .818750000000D+02  .392087760600D-08  .130957333847D+01
     .437721610069D-05  .267975521274D-02  .530853867531D-06  .515371185684D+04
     .172800000000D+06  .156462192535D-06  .113453855354D+01 -.223517417908D-07
     .989188060248D+00  .382656250000D+03 -.766567594526D+00 -.812498129523D-08
     .343228582562D-09  .100000000000D+01  .227300000000D+04  .000000000000D+00
     .340000000000D+01  .000000000000D+00  .372529029846D-08  .740000000000D+02
     .165600000000D+06  .400000000000D+01
4  23  8  1  0  0  0.0  .112131703645D-03  .111413100967D-10  .000000000000D+00
     .310000000000D+02 -.697812500000D+02  .427624955153D-08  .288572038762D+01
    -.347942113876D-05  .247140787542D-02  .119134783745D-04  .515364766312D+04
     .172800000000D+06 -.502914190292D-07 -.302945550921D+01 -.521540641785D-07
     .963605931335D+00  .153968750000D+03 -.300921086617D+01 -.766424781811D-08
     .538236705433D-09  .100000000000D+01  .227300000000D+04  .000000000000D+00
     .240000000000D+01  .000000000000D+00 -.465661287308D-08  .799000000000D+03
     .165600000000D+06  .400000000000D+01
31 23  8  1  0  0  0.0 -.221063382924D-03 -.682121026330D-12  .000000000000D+00
     .850000000000D+02  .209687500000D+02  .523057501730D-08 -.429341940684D+00
     .116415321827D-05  .103526548482D-01  .586174428463D-05  .515358853531D+04
     .172800000000D+06  .614672899246D-07 -.199473309239D+01  .119209289551D-06
     .954064024756D+00  .262156250000D+03  .560020500862D+00 -.832141804903D-08
     .334299639208D-09  .100000000000D+01  .227300000000D+04  .000000000000D+00
     .240000000000D+01  .000000000000D+00 -.135041773319D-07  .850000000000D+02
     .165600000000D+06  .400000000000D+01
29 23  8  1  0  0  0.0 -.606835354120D-03 -.795807864051D-12  .000000000000D+00
     .430000000000D+02  .159968750000D+03  .368015329316D-08 -.301969951627D+01
     .817142426968D-05  .263008766342D-02  .114981085062D-04  .515374186516D+04
     .172800000000D+06  .298023223877D-07  .153449694927D+00  .558793544769D-08
     .976016204798D+00  .166843750000D+03  .250091132929D+01 -.754602860809D-08
    -.175007289756D-09  .100000000000D+01  .227300000000D+04  .000000000000D+00
     .240000000000D+01  .000000000000D+00 -.102445483208D-07  .430000000000D+02
     .165600000000D+06  .400000000000D+01
32 23  8  1  0  0  0.0 -.532143283635D-03 -.716227077646D-11  .000000000000D+00
     .550000000000D+02 -.875625000000D+02  .429553606918D-08 -.236599122832D+01
    -.450760126114D-05  .697549001779D-02  .119283795357D-04  .515378001213D+04
     .172800000000D+06  .189989805222D-06 -.307319530418D+01  .745058059692D-08
     .960544345156D+00  .147312500000D+03 -.220493738324D+01 -.763281793750D-08
     .545022702383D-09  .100000000000D+01  .227300000000D+04  .000000000000D+00
     .240000000000D+01  .000000000000D+00  .465661287308D-09  .550000000000D+02
     .165600000000D+06  .400000000000D+01
30 23  8  1  0  0  0.0 -.500039197505D-03  .295585778076D-11  .000000000000D+00
     .350000000000D+02  .241562500000D+02  .573488173799D-08  .361404537104D+00
     .131689012051D-05  .658662535716D-02  .539049506187D-05  .515377525711D+04
     .172800000000D+06 -.745058059692D-08 -.200989620902D+01 -.186264514923D-08
     .935136898903D+00  .258312500000D+03 -.254753018215D+01 -.862714506951D-08
     .273939982128D-09  .100000000000D+01  .227300000000D+04  .000000000000D+00
     .240000000000D+01  .000000000000D+00  .372529029846D-08  .350000000000D+02
     .165600000000D+06  .400000000000D+01
24 23  8  1  0  0  0.0 -.275749247521D-03 -.118234311230D-10  .000000000000D+00
     .870000000000D+02  .222812500000D+02  .574309636587D-08  .143135534522D+01
     .119023025036D-05  .141414458631D-01  .680983066559D-05  .515363254356D+04
     .172800000000D+06 -.322237610817D-06 -.210685307381D+01  .141561031342D-06
     .933690069996D+00  .237968750000D+03  .906179741909D+00 -.858392898367D-08
     .459662003910D-09  .100000000000D+01  .227300000000D+04  .000000000000D+00
     .240000000000D+01  .000000000000D+00  .279396772385D-08  .870000000000D+02
     .165600000000D+06  .400000000000D+01
27 23  8  1  0  0  0.0 -.138026662171D-04 -.693489710102D-11  .000000000000D+00
     .480000000000D+02  .124843750000D+03  .376551399163D-08 -.294851400885D+01
     .645406544209D-05  .115500664106D-01  .115409493446D-04  .515367505836D+04
     .172800000000D+06  .204890966415D-07  .731031092208D-01 -.596046447754D-07
     .967026731196D+00  .157500000000D+03  .742355138757D+00 -.743173813315D-08
    -.133576992589D-09  .100000000000D+01  .227300000000D+04  .000000000000D+00
     .240000000000D+01  .000000000000D+00  .186264514923D-08  .480000000000D+02
     .165600000000D+06  .400000000000D+01
16 23  8  1  0  0  0.0 -.474004540592D-03  .466116034659D-11  .000000000000D+00
     .710000000000D+02 -.176562500000D+02  .447411493627D-08 -.204067578012D+01
    -.877305865288D-06  .133115471108D-01  .870227813721D-05  .515362891769D+04
     .172800000000D+06  .782310962677D-07 -.881437360158D+00 -.134110450745D-06
     .964302439799D+00  .212968750000D+03  .789971742705D+00 -.767031949960D-08
    -.715744099329D-09  .100000000000D+01  .227300000000D+04  .000000000000D+00
     .240000000000D+01  .000000000000D+00 -.102445483208D-07  .710000000000D+02
     .165600000000D+06  .400000000000D+01
9  23  8  1  0  0  0.0 -.981823541224D-04  .954969436862D-11  .000000000000D+00
     .700000000000D+02 -.739062500000D+02  .447090051667D-08 -.248916949382D+01
    -.373274087906D-05  .255174050108D-02  .120159238577D-04  .515357618523D+04
     .172800000000D+06  .204890966415D-07 -.308663001528D+01  .428408384323D-07
     .956961249163D+00  .146031250000D+03  .194028058239D+01 -.776818071876D-08
     .491806199988D-09  .100000000000D+01  .227300000000D+04  .000000000000D+00
     .240000000000D+01  .000000000000D+00  .931322574615D-09  .700000000000D+02
     .165600000000D+06  .400000000000D+01
11 23  8  1  0  0  0.0 -.300540588796D-03 -.168256519828D-10  .000000000000D+00
     .152000000000D+03  .828437500000D+02  .448090093322D-08  .273604091054D+01
     .450946390629D-05  .986981438473D-03 -.631436705589D-06  .515357528305D+04
     .172800000000D+06 -.242143869400D-07  .117438883408D+01 -.104308128357D-06
     .965437991922D+00  .391437500000D+03 -.285704906141D+01 -.849249660371D-08
     .341799951626D-09  .100000000000D+01  .227300000000D+04  .000000000000D+00
     .240000000000D+01  .000000000000D+00 -.884756445885D-08  .152000000000D+03
     .165600000000D+06  .400000000000D+01
20 23  8  1  0  0  0.0  .419651158154D-03 -.204636307899D-11  .000000000000D+00
     .800000000000D+02 -.134031250000D+03  .487234580990D-08  .196685468826D+01
    -.700727105141D-05  .405315740500D-02  .113248825073D-05  .515359648705D+04
     .172800000000D+06 -.987201929092D-07  .200234859479D+01  .987201929092D-07
     .949326428925D+00  .346562500000D+03 -.287450224464D+01 -.860285834358D-08
    -.194650965137D-09  .100000000000D+01  .227300000000D+04  .000000000000D+00
     .340000000000D+01  .000000000000D+00 -.838190317154D-08  .800000000000D+02
     .165600000000D+06  .400000000000D+01
